******** Week 935 almanac for PRN-01 ********
ID:                         01
Health:                     000
Eccentricity:               4.7953799367E-004
Time of Applicability(s):   86400.0000
Orbital Inclination(rad):   0.0617617564
Rate of Right Ascen(r/s):  -5.2255748090E-009
SQRT(A)  (m 1/2):           6493.411963
Right Ascen at Week(rad):  -3.1138849018E+000
Argument of Perigee(rad):  -0.198827212
Mean Anom(rad):            -4.2976750063E-001
Af0(s):                     8.8027084712E-004
Af1(s/s):                   3.3928415633E-013
week:                        935

******** Week 935 almanac for PRN-02 ********
ID:                         02
Health:                     000
Eccentricity:               8.0628669821E-004
Time of Applicability(s):   86400.0000
Orbital Inclination(rad):   0.0521200115
Rate of Right Ascen(r/s):  -7.7331792608E-009
SQRT(A)  (m 1/2):           6493.495176
Right Ascen at Week(rad):   3.0561193958E+000
Argument of Perigee(rad):   2.122776062
Mean Anom(rad):             2.5862706857E+000
Af0(s):                     2.1958362777E-004
Af1(s/s):                   3.4784619629E-011
week:                        935

******** Week 935 almanac for PRN-03 ********
ID:                         03
Health:                     000
Eccentricity:               8.7833299767E-004
Time of Applicability(s):   86400.0000
Orbital Inclination(rad):   0.0624431295
Rate of Right Ascen(r/s):  -6.3031196931E-009
SQRT(A)  (m 1/2):           6493.429905
Right Ascen at Week(rad):  -3.0732196910E+000
Argument of Perigee(rad):   2.170816063
Mean Anom(rad):             2.8497631325E+000
Af0(s):                    -1.7706281505E-004
Af1(s/s):                   1.6512125001E-011
week:                        935

******** Week 935 almanac for PRN-04 ********
ID:                         04
Health:                     000
Eccentricity:               8.1025459804E-004
Time of Applicability(s):   86400.0000
Orbital Inclination(rad):   0.0635511070
Rate of Right Ascen(r/s):  -4.1726738086E-009
SQRT(A)  (m 1/2):           6493.434366
Right Ascen at Week(rad):  -3.0665817573E+000
Argument of Perigee(rad):  -0.149374424
Mean Anom(rad):            -2.5826200995E-001
Af0(s):                     2.0645640325E-004
Af1(s/s):                   1.5138112985E-010
week:                        935

******** Week 935 almanac for PRN-05 ********
ID:                         05
Health:                     000
Eccentricity:               8.7195693050E-004
Time of Applicability(s):   86400.0000
Orbital Inclination(rad):   0.0537593165
Rate of Right Ascen(r/s):  -5.9309613341E-009
SQRT(A)  (m 1/2):           6493.491003
Right Ascen at Week(rad):  -3.0882130345E+000
Argument of Perigee(rad):   0.307730250
Mean Anom(rad):            -2.4603962549E+000
Af0(s):                    -2.7633388527E-005
Af1(s/s):                  -6.1151084196E-011
week:                        935

******** Week 935 almanac for PRN-06 ********
ID:                         06
Health:                     000
Eccentricity:               3.7711851764E-003
Time of Applicability(s):   86400.0000
Orbital Inclination(rad):   0.9458183821
Rate of Right Ascen(r/s):  -1.8257903372E-009
SQRT(A)  (m 1/2):           6493.149084
Right Ascen at Week(rad):   1.7417451611E+000
Argument of Perigee(rad):  -2.994050157
Mean Anom(rad):            -3.1287249856E+000
Af0(s):                     5.3036143072E-005
Af1(s/s):                   1.8986590078E-011
week:                        935

******** Week 935 almanac for PRN-07 ********
ID:                         07
Health:                     000
Eccentricity:               2.8963215882E-003
Time of Applicability(s):   86400.0000
Orbital Inclination(rad):   0.8599209000
Rate of Right Ascen(r/s):  -2.2686659276E-009
SQRT(A)  (m 1/2):           6493.800783
Right Ascen at Week(rad):  -2.5896578414E+000
Argument of Perigee(rad):  -2.595139578
Mean Anom(rad):             7.7173443832E-001
Af0(s):                    -4.1819736362E-004
Af1(s/s):                  -5.9974247790E-011
week:                        935

******** Week 935 almanac for PRN-08 ********
ID:                         08
Health:                     000
Eccentricity:               2.7428597678E-003
Time of Applicability(s):   86400.0000
Orbital Inclination(rad):   1.0663356333
Rate of Right Ascen(r/s):  -2.2883096030E-009
SQRT(A)  (m 1/2):           6493.725554
Right Ascen at Week(rad):  -3.9290885830E-001
Argument of Perigee(rad):   3.137692431
Mean Anom(rad):            -8.7723905884E-001
Af0(s):                     2.0279164892E-004
Af1(s/s):                  -2.3316459874E-011
week:                        935

******** Week 935 almanac for PRN-09 ********
ID:                         09
Health:                     000
Eccentricity:               1.1151448125E-002
Time of Applicability(s):   86400.0000
Orbital Inclination(rad):   0.9505995378
Rate of Right Ascen(r/s):  -1.8057895041E-009
SQRT(A)  (m 1/2):           6493.747740
Right Ascen at Week(rad):   1.7864298577E+000
Argument of Perigee(rad):  -2.329103312
Mean Anom(rad):             2.1766701633E+000
Af0(s):                    -1.7100560945E-004
Af1(s/s):                  -4.9517723255E-011
week:                        935

******** Week 935 almanac for PRN-10 ********
ID:                         10
Health:                     000
Eccentricity:               9.1702160426E-003
Time of Applicability(s):   86400.0000
Orbital Inclination(rad):   0.8621360184
Rate of Right Ascen(r/s):  -2.2672372967E-009
SQRT(A)  (m 1/2):           6493.839975
Right Ascen at Week(rad):  -2.5953756933E+000
Argument of Perigee(rad):  -2.435650748
Mean Anom(rad):             3.7025164391E-001
Af0(s):                    -4.0123355575E-005
Af1(s/s):                  -1.3849366098E-011
week:                        935

******** Week 935 almanac for PRN-11 ********
ID:                         11
Health:                     000
Eccentricity:               2.3258669535E-003
Time of Applicability(s):   86400.0000
Orbital Inclination(rad):   0.9851641549
Rate of Right Ascen(r/s):  -6.6031321898E-009
SQRT(A)  (m 1/2):           5282.634609
Right Ascen at Week(rad):  -1.6701402862E+000
Argument of Perigee(rad):  -1.713625267
Mean Anom(rad):             2.3649123394E+000
Af0(s):                     2.8823327739E-004
Af1(s/s):                   1.9819701436E-011
week:                        935

******** Week 935 almanac for PRN-12 ********
ID:                         12
Health:                     000
Eccentricity:               1.4145004097E-003
Time of Applicability(s):   86400.0000
Orbital Inclination(rad):   0.9835882205
Rate of Right Ascen(r/s):  -6.6517056417E-009
SQRT(A)  (m 1/2):           5282.633154
Right Ascen at Week(rad):  -1.6826028517E+000
Argument of Perigee(rad):  -1.663785500
Mean Anom(rad):             3.1236158452E+000
Af0(s):                     8.3753420040E-004
Af1(s/s):                  -1.2628120771E-011
week:                        935

******** Week 935 almanac for PRN-13 ********
ID:                         13
Health:                     000
Eccentricity:               4.8942866270E-003
Time of Applicability(s):   86400.0000
Orbital Inclination(rad):   1.0281956312
Rate of Right Ascen(r/s):  -2.3868851376E-009
SQRT(A)  (m 1/2):           6493.588682
Right Ascen at Week(rad):  -4.2209225557E-001
Argument of Perigee(rad):  -2.423066761
Mean Anom(rad):            -1.7511968524E+000
Af0(s):                     3.9115012623E-004
Af1(s/s):                   5.1292303738E-012
week:                        935

******** Week 935 almanac for PRN-14 ********
ID:                         14
Health:                     000
Eccentricity:               1.0132840835E-003
Time of Applicability(s):   86400.0000
Orbital Inclination(rad):   0.9733951033
Rate of Right Ascen(r/s):  -6.7392092865E-009
SQRT(A)  (m 1/2):           5282.632452
Right Ascen at Week(rad):   3.8692859256E-001
Argument of Perigee(rad):  -0.263000722
Mean Anom(rad):            -1.1605142586E+000
Af0(s):                    -3.2109732274E-004
Af1(s/s):                   5.7093885175E-011
week:                        935

******** Week 935 almanac for PRN-16 ********
ID:                         16
Health:                     000
Eccentricity:               6.2615817878E-003
Time of Applicability(s):   86400.0000
Orbital Inclination(rad):   0.9612446470
Rate of Right Ascen(r/s):  -1.7418582697E-009
SQRT(A)  (m 1/2):           6493.767557
Right Ascen at Week(rad):   1.7368111787E+000
Argument of Perigee(rad):  -2.300373116
Mean Anom(rad):             2.5346044963E+000
Af0(s):                    -2.0768877584E-004
Af1(s/s):                  -1.9650059357E-011
week:                        935

******** Week 935 almanac for PRN-19 ********
ID:                         19
Health:                     000
Eccentricity:               6.3252972905E-004
Time of Applicability(s):   86400.0000
Orbital Inclination(rad):   0.9760320658
Rate of Right Ascen(r/s):  -6.6988504626E-009
SQRT(A)  (m 1/2):           5282.631893
Right Ascen at Week(rad):   3.8816587308E-001
Argument of Perigee(rad):  -1.070017422
Mean Anom(rad):             2.3813029072E+000
Af0(s):                    -9.5816538669E-004
Af1(s/s):                   6.3309357756E-012
week:                        935

